[{"OBJECT_NAME":"STARLINK-31312","OBJECT_ID":"2024-044A","EPOCH":"2026-03-09T07:36:03.695616","MEAN_MOTION":15.27574682,"ECCENTRICITY":0.00012325,"INCLINATION":43.0017,"RA_OF_ASC_NODE":58.4291,"ARG_OF_PERICENTER":266.5226,"MEAN_ANOMALY":93.5484,"EPHEMERIS_TYPE":0,"CLASSIFICATION_TYPE":"U","NORAD_CAT_ID":59152,"ELEMENT_SET_NO":999,"REV_AT_EPOCH":11412,"BSTAR":3.3039854e-5,"MEAN_MOTION_DOT":6.47e-6,"MEAN_MOTION_DDOT":0},{"OBJECT_NAME":"FLOCK 4G-5","OBJECT_ID":"2025-009BG","EPOCH":"2026-03-09T10:57:11.608704","MEAN_MOTION":15.28679529,"ECCENTRICITY":0.00020946,"INCLINATION":97.4058,"RA_OF_ASC_NODE":151.2478,"ARG_OF_PERICENTER":314.5072,"MEAN_ANOMALY":45.5996,"EPHEMERIS_TYPE":0,"CLASSIFICATION_TYPE":"U","NORAD_CAT_ID":62663,"ELEMENT_SET_NO":999,"REV_AT_EPOCH":6369,"BSTAR":0.00040688068,"MEAN_MOTION_DOT":0.00011278,"MEAN_MOTION_DDOT":0}]
